QIANFAN-1               
1 60379U 24140A   25277.51641049  .00000097  00000+0  13101-3 0  9993
2 60379  88.9756 306.4597 0019229  59.2383 301.0659 13.50975256 58007
QIANFAN-2               
1 60380U 24140B   25277.54513209  .00000089  00000+0  11967-3 0  9993
2 60380  88.9742 306.3056 0013766  35.7181 324.4888 13.50967440 58063
QIANFAN-3               
1 60381U 24140C   25277.55341841  .00000079  00000+0  10355-3 0  9995
2 60381  88.9736 306.4425 0015270  46.5914 313.6505 13.50967440 57979
QIANFAN-4               
1 60382U 24140D   25277.52875214  .00000087  00000+0  11655-3 0  9992
2 60382  88.9760 306.3253 0014086  37.9954 322.2188 13.50974538 58090
QIANFAN-5               
1 60383U 24140E   25277.50406462  .00000079  00000+0  10398-3 0  9990
2 60383  88.9736 306.4732 0016832  56.3857 303.8898 13.50970583 57958
QIANFAN-6               
1 60384U 24140F   25277.52468416  .00000088  00000+0  11746-3 0  9998
2 60384  88.9762 306.1988 0014383  43.3262 316.9018 13.50972126 58150
QIANFAN-7               
1 60385U 24140G   25277.49327007  .00000637  00000+0  25306-3 0  9992
2 60385  88.9766 301.8715 0012568 267.8973  92.0782 14.27569894 60512
QIANFAN-8               
1 60386U 24140H   25277.53285160  .00000073  00000+0  94789-4 0  9997
2 60386  88.9764 306.4343 0017886  43.9148 316.3421 13.50970228 58009
